NORAD_CAT_ID,OBJECT_NAME,OBJECT_TYPE,EPOCH,MEAN_MOTION,ECCENTRICITY,INCLINATION,RA_OF_ASC_NODE,ARG_OF_PERICENTER,MEAN_ANOMALY,BSTAR,MEAN_MOTION_DOT,MEAN_MOTION_DDOT,TLE_LINE0,TLE_LINE1,TLE_LINE2,SEMIMAJOR_AXIS,PERIOD,APOGEE,PERIGEE,DECAYED
50836.0,STARLINK-3330,PAYLOAD,2022-10-11 11:00:03,15.0882217,0.0001863,53.2206,9.1869,49.4684,310.647,-0.00011061,-2.047e-05,0.0,0 STARLINK-3330,1 50836U 22001AK  22284.45837759 -.00002047  00000-0 -11061-3 0  9990,2 50836  53.2206   9.1869 0001863  49.4684 310.6470 15.08822170 42177,6917.935,95.439,541.089,538.511,0.0
50836.0,STARLINK-3330,PAYLOAD,2022-10-11 15:46:13,15.08818598,0.0001889,53.2201,8.2943,51.9468,308.1694,-0.00010169,-1.905e-05,0.0,0 STARLINK-3330,1 50836U 22001AK  22284.65710177 -.00001905  00000-0 -10169-3 0  9996,2 50836  53.2201   8.2943 0001889  51.9468 308.1694 15.08818598 42204,6917.946,95.439,541.118,538.504,0.0
50836.0,STARLINK-3330,PAYLOAD,2022-10-12 12:26:12,15.08849761,0.0001883,53.2206,4.4291,53.124,306.9925,0.00014427,2.009e-05,0.0,0 STARLINK-3330,1 50836U 22001AK  22285.51819962  .00002009  00000-0  14427-3 0  9999,2 50836  53.2206   4.4291 0001883  53.1240 306.9925 15.08849761 42332,6917.851,95.437,541.018,538.413,0.0
50836.0,STARLINK-3330,PAYLOAD,2022-10-12 14:01:36,15.08843399,0.0001883,53.2199,4.1341,52.0702,308.046,0.0001422,1.976e-05,0.0,0 STARLINK-3330,1 50836U 22001AK  22285.58444676  .00001976  00000-0  14220-3 0  9995,2 50836  53.2199   4.1341 0001883  52.0702 308.0460 15.08843399 43707,6917.87,95.437,541.038,538.432,0.0
50836.0,STARLINK-3330,PAYLOAD,2022-10-13 12:17:01,15.08823895,0.0001720999999999,53.2196,359.9669,49.6034,310.5108,9.3283e-05,1.196e-05,0.0,0 STARLINK-3330,1 50836U 22001AK  22286.51182193  .00001196  00000-0  93283-4 0  9993,2 50836  53.2196 359.9669 0001721  49.6034 310.5108 15.08823895 42489,6917.93,95.439,540.985,538.604,0.0
50836.0,STARLINK-3330,PAYLOAD,2022-10-13 13:52:24,15.08821514,0.0001754,53.2198,359.6702,49.5855,310.529,8.0135e-05,9.87e-06,0.0,0 STARLINK-3330,1 50836U 22001AK  22286.57806467  .00000987  00000-0  80135-4 0  9995,2 50836  53.2198 359.6702 0001754  49.5855 310.5290 15.08821514 43852,6917.937,95.439,541.015,538.5880000000002,0.0
50836.0,STARLINK-3330,PAYLOAD,2022-10-13 21:49:20,15.08826302,0.0001908,53.22,358.1839,45.9473,314.1676,0.00014164,1.966e-05,0.0,0 STARLINK-3330,1 50836U 22001AK  22286.90926335  .00001966  00000-0  14164-3 0  9995,2 50836  53.2200 358.1839 0001908  45.9473 314.1676 15.08826302 43902,6917.922,95.438,541.107,538.467,0.0
50836.0,STARLINK-3330,PAYLOAD,2022-10-14 12:07:48,15.08839571,0.0001859,53.2205,355.5092,51.6728,308.4431,-4.4978e-05,-1.004e-05,0.0,0 STARLINK-3330,1 50836U 22001AK  22287.50542296 -.00001004  00000-0 -44978-4 0  9994,2 50836  53.2205 355.5092 0001859  51.6728 308.4431 15.08839571 42637,6917.882,95.438,541.033,538.461,0.0
50836.0,STARLINK-3330,PAYLOAD,2022-10-14 16:53:57,15.08841417,0.0001809,53.2204,354.6171,52.7313,307.3844,-6.519699999999999e-05,-1.326e-05,0.0,0 STARLINK-3330,1 50836U 22001AK  22287.70414194 -.00001326  00000-0 -65197-4 0  9994,2 50836  53.2204 354.6171 0001809  52.7313 307.3844 15.08841417 44024,6917.876,95.437,540.993,538.49,0.0
50836.0,STARLINK-3330,PAYLOAD,2022-10-14 21:40:06,15.08850126,0.0001889,53.2195,353.7235,45.6167,314.498,8.269700000000001e-05,1.029e-05,0.0,0 STARLINK-3330,1 50836U 22001AK  22287.90285063  .00001029  00000-0  82697-4 0  9999,2 50836  53.2195 353.7235 0001889  45.6167 314.4980 15.08850126 44050,6917.849,95.437,541.021,538.408,0.0
50836.0,STARLINK-3330,PAYLOAD,2022-10-15 11:58:34,15.08851963,0.0001925,53.2199,351.0476,44.7739,315.3409,0.00015397,2.164e-05,0.0,0 STARLINK-3330,1 50836U 22001AK  22288.49900583  .00002164  00000-0  15397-3 0  9998,2 50836  53.2199 351.0476 0001925  44.7739 315.3409 15.08851963 42782,6917.844,95.437,541.0409999999998,538.377,0.0
50836.0,STARLINK-3330,PAYLOAD,2022-10-15 16:44:44,15.08834918,0.000248,53.2207,350.1566,42.511,317.6074,7.523600000000001e-05,9.09e-06,0.0,0 STARLINK-3330,1 50836U 22001AK  22288.69773976  .00000909  00000-0  75236-4 0  9998,2 50836  53.2207 350.1566 0002480  42.5110 317.6074 15.08834918 44177,6917.896,95.438,541.477,538.045,0.0
50836.0,STARLINK-3330,PAYLOAD,2022-10-16 10:13:58,15.08839892,0.000167,53.22,346.8875,34.6894,325.4207,9.1148e-05,1.163e-05,0.0,0 STARLINK-3330,1 50836U 22001AK  22289.42637333  .00001163  00000-0  91148-4 0  9999,2 50836  53.2200 346.8875 0001670  34.6894 325.4207 15.08839892 42928,6917.880999999999,95.438,540.901,538.59,0.0
50836.0,STARLINK-3330,PAYLOAD,2022-10-16 13:24:44,15.08845811,0.0001471,53.2193,346.2916,40.4703,319.6398,3.2318000000000005e-05,2.26e-06,0.0,0 STARLINK-3330,1 50836U 22001AK  22289.55885044  .00000226  00000-0  32318-4 0  9990,2 50836  53.2193 346.2916 0001471  40.4703 319.6398 15.08845811 44300,6917.863,95.437,540.745,538.71,0.0
50836.0,STARLINK-3330,PAYLOAD,2022-10-17 10:04:46,15.0883835,0.0002096,53.2197,342.4284,42.3648,317.7506,-9.3066e-05,-1.769e-05,0.0,0 STARLINK-3330,1 50836U 22001AK  22290.41997768 -.00001769  00000-0 -93066-4 0  9996,2 50836  53.2197 342.4284 0002096  42.3648 317.7506 15.08838350 44437,6917.885,95.438,541.2,538.3,0.0
50836.0,STARLINK-3330,PAYLOAD,2022-10-17 13:15:32,15.08839934,0.0001868,53.2202,341.8302,43.9199,316.1942,-0.00015093,-2.689e-05,0.0,0 STARLINK-3330,1 50836U 22001AK  22290.55245767 -.00002689  00000-0 -15093-3 0  9991,2 50836  53.2202 341.8302 0001868  43.9199 316.1942 15.08839934 43099,6917.880999999999,95.438,541.038,538.453,0.0
50836.0,STARLINK-3330,PAYLOAD,2022-10-18 09:55:32,15.08840477,0.0001671,53.2189,337.9635,33.5736,326.5362,-2.7898000000000013e-05,-7.32e-06,0.0,0 STARLINK-3330,1 50836U 22001AK  22291.41357270 -.00000732  00000-0 -27898-4 0  9994,2 50836  53.2189 337.9635 0001671  33.5736 326.5362 15.08840477 43222,6917.879,95.438,540.9,538.5880000000002,0.0
50836.0,STARLINK-3330,PAYLOAD,2022-10-18 13:06:19,15.08838012,0.0001894,53.2192,337.3697,31.9047,328.2059,-5.5515e-05,-1.172e-05,0.0,0 STARLINK-3330,1 50836U 22001AK  22291.54605573 -.00001172  00000-0 -55515-4 0  9996,2 50836  53.2192 337.3697 0001894  31.9047 328.2059 15.08838012 44609,6917.886,95.438,541.062,538.441,0.0
50836.0,STARLINK-3330,PAYLOAD,2022-10-19 09:46:20,15.0882928,0.0001846,53.2188,333.5039,41.105,319.0081,-1.4539e-05,-5.19e-06,0.0,0 STARLINK-3330,1 50836U 22001AK  22292.40718355 -.00000519  00000-0 -14539-4 0  9990,2 50836  53.2188 333.5039 0001846  41.1050 319.0081 15.08829280 43379,6917.913000000001,95.438,541.055,538.501,0.0
50836.0,STARLINK-3330,PAYLOAD,2022-10-19 12:57:06,15.08831972,0.0001786999999999,53.2194,332.9093,38.9468,321.1653,-2.1214e-05,-6.26e-06,0.0,0 STARLINK-3330,1 50836U 22001AK  22292.53966256 -.00000626  00000-0 -21214-4 0  9996,2 50836  53.2194 332.9093 0001787  38.9468 321.1653 15.08831972 43392,6917.905,95.438,541.006,538.534,0.0
50836.0,STARLINK-3330,PAYLOAD,2022-10-20 04:50:57,15.08839059,0.0001851999999999,53.2193,329.936,44.404,315.7101,9.5666e-05,1.235e-05,0.0,0 STARLINK-3330,1 50836U 22001AK  22293.20205665  .00001235  00000-0  95666-4 0  9998,2 50836  53.2193 329.9360 0001852  44.4040 315.7101 15.08839059 44858,6917.8830000000025,95.438,541.029,538.467,0.0
50836.0,STARLINK-3330,PAYLOAD,2022-10-20 11:12:31,15.08830644,0.0001888,53.2193,328.7467,41.6641,318.4495,1.1592e-05,-1.04e-06,0.0,0 STARLINK-3330,1 50836U 22001AK  22293.46702550 -.00000104  00000-0  11592-4 0  9992,2 50836  53.2193 328.7467 0001888  41.6641 318.4495 15.08830644 44899,6917.909000000002,95.438,541.08,538.4680000000002,0.0
50836.0,STARLINK-3330,PAYLOAD,2022-10-20 19:09:26,15.08836672,0.0001582,53.2196,327.2595,53.6745,306.4393,-1.645e-05,-5.5e-06,0.0,0 STARLINK-3330,1 50836U 22001AK  22293.79822344 -.00000550  00000-0 -16450-4 0  9996,2 50836  53.2196 327.2595 0001582  53.6745 306.4393 15.08836672 43583,6917.891,95.438,540.85,538.661,0.0
50836.0,STARLINK-3330,PAYLOAD,2022-10-21 11:03:18,15.08827998,0.0001885999999999,53.2188,324.2847,41.9205,318.1931,4.4327e-05,4.17e-06,0.0,0 STARLINK-3330,1 50836U 22001AK  22294.46063002  .00000417  00000-0  44327-4 0  9993,2 50836  53.2188 324.2847 0001886  41.9205 318.1931 15.08827998 43689,6917.917,95.438,541.087,538.477,0.0
50836.0,STARLINK-3330,PAYLOAD,2022-10-21 19:00:13,15.08834122,0.0001914,53.2186,322.7972,37.9637,322.1489,5.0598e-05,5.17e-06,0.0,0 STARLINK-3330,1 50836U 22001AK  22294.79182729  .00000517  00000-0  50598-4 0  9995,2 50836  53.2186 322.7972 0001914  37.9637 322.1489 15.08834122 45092,6917.898,95.438,541.087,538.439,0.0
50836.0,STARLINK-3330,PAYLOAD,2022-10-22 10:54:04,15.08850496,0.0001908,53.2193,319.8248,45.0751,315.0396,5.7383e-05,6.25e-06,0.0,0 STARLINK-3330,1 50836U 22001AK  22295.45421748  .00000625  00000-0  57383-4 0  9995,2 50836  53.2193 319.8248 0001908  45.0751 315.0396 15.08850496 45194,6917.848000000001,95.437,541.033,538.393,0.0
50836.0,STARLINK-3330,PAYLOAD,2022-10-22 18:51:01,15.08834937,0.0002121999999999,53.2194,318.3399,46.7067,313.4102,4.6048e-05,4.45e-06,0.0,0 STARLINK-3330,1 50836U 22001AK  22295.78542887  .00000445  00000-0  46048-4 0  9995,2 50836  53.2194 318.3399 0002122  46.7067 313.4102 15.08834937 43886,6917.896,95.438,541.229,538.293,0.0
50836.0,STARLINK-3330,PAYLOAD,2022-10-23 04:23:19,15.08842892,0.0001756,53.2186,316.5524,35.0689,325.0419,6.610600000000001e-05,7.64e-06,0.0,0 STARLINK-3330,1 50836U 22001AK  22296.18286081  .00000764  00000-0  66106-4 0  9992,2 50836  53.2186 316.5524 0001756  35.0689 325.0419 15.08842892 45308,6917.871999999999,95.437,540.951,538.5219999999998,0.0
50836.0,STARLINK-3330,PAYLOAD,2022-10-23 10:44:51,15.08848509,0.0002044999999999,53.2191,315.3652,43.6375,316.4778,0.00018542,2.665e-05,0.0,0 STARLINK-3330,1 50836U 22001AK  22296.44781438  .00002665  00000-0  18542-3 0  9999,2 50836  53.2191 315.3652 0002045  43.6375 316.4778 15.08848509 43987,6917.854,95.437,541.134,538.305,0.0
